AAUSAT 4                
1 41460U 16025E   21308.36853749  .00008663  00000-0  39166-3 0  9999
2 41460  98.1581  97.7871 0142298 292.5307  66.0939 15.12526300303859
BEESAT-4                
1 41619U 16040W   21308.40001677  .00018534  00000-0  71087-3 0  9998
2 41619  97.2527   0.5098 0010125 186.8647 173.2455 15.26491359286352
CANX-7                  
1 41788U 16059F   21308.83159077  .00122319  00000-0  11680-1 0  9998
2 41788  98.2440  59.7789 0021198 112.2416 248.1992 14.92478241274752
RAVAN                   
1 41849U 16067B   21308.29349423  .00004718  00000-0  39077-3 0  9995
2 41849  97.9798  74.3097 0006723  12.8212 347.3180 14.99352573272242
CELTEE 1                
1 41850U 16067C   21308.60154634  .00003047  00000-0  26559-3 0  9995
2 41850  97.9712  70.6191 0008799  12.1045 348.0386 14.97638745272091
OPTICUBE 04             
1 41851U 16067D   21308.57238067  .00002128  00000-0  18901-3 0  9996
2 41851  97.9711  69.8700 0009406  19.1440 341.0132 14.97241785272051
AEROCUBE 8D             
1 41852U 16067E   21308.29807635  .00002760  00000-0  24232-3 0  9995
2 41852  97.9706  69.4917 0009995  20.1546 340.0068 14.97422881271991
AEROCUBE 8C             
1 41853U 16067F   21308.60846804  .00003751  00000-0  32767-3 0  9995
2 41853  97.9688  69.6592 0009945  17.4321 342.7240 14.97391431272030
PROMETHEUS 2-1          
1 41854U 16067G   21308.56527612  .00008945  00000-0  76133-3 0  9999
2 41854  97.9716  70.3609 0010490  19.1021 341.0592 14.98005849272065
PROMETHEUS 2-3          
1 41855U 16067H   21308.62787548  .00008982  00000-0  76411-3 0  9993
2 41855  97.9714  70.4864 0010541  19.1085 341.0529 14.98021586272072
INS-1B                  
1 41954U 17008G   21308.54387882  .00033877  00000-0  12697-2 0  9993
2 41954  97.2924   8.5230 0007412 325.3279  34.7477 15.27156410262386
BGUSAT                  
1 41999U 17008BD  21308.44973684  .00036126  00000-0  11774-2 0  9997
2 41999  97.3119  16.1929 0005741 326.0289  34.0584 15.31715596262129
DIDO-2                  
1 42000U 17008BE  21308.12911054  .00006178  00000-0  24328-3 0  9993
2 42000  97.2921   8.1594 0007512 350.4419   9.6676 15.25943924261687
PEASSS                  
1 42015U 17008BV  21308.43494555  .00014082  00000-0  52167-3 0  9990
2 42015  97.2968  11.3369 0005424 352.0230   8.0922 15.27737426262384
AL-FARABI 1             
1 42016U 17008BW  21308.42193296  .00020053  00000-0  70855-3 0  9997
2 42016  97.3024  13.4766 0005068 349.4463  10.6670 15.29218546262619
NAYIF-1 (EO-88)         
1 42017U 17008BX  21308.44987998  .00020695  00000-0  72965-3 0  9996
2 42017  97.3017  13.5104 0005110 348.1007  12.0112 15.29282253262643
UCLSAT                  
1 42765U 17036A   21308.52850861  .00031823  00000-0  12438-2 0  9997
2 42765  97.2329 353.5855 0011794  49.3470 310.8792 15.25736209243527
LITUANICASAT-2          
1 42768U 17036D   21308.38806051  .00032722  00000-0  12008-2 0  9998
2 42768  97.2411 354.7479 0013943  36.9375 323.2822 15.27793939242820
AALTO-1                 
1 42775U 17036L   21308.37418141  .00008415  00000-0  35745-3 0  9990
2 42775  97.2307 349.5811 0014533  47.3241 312.9218 15.23207532242490
URSA MAIOR              
1 42776U 17036M   21308.41598987  .00009066  00000-0  38125-3 0  9991
2 42776  97.2321 350.1724 0014303  46.6081 313.6345 15.23527887242528
COMPASS 2               
1 42777U 17036N   21308.36381277  .00023051  00000-0  87260-3 0  9992
2 42777  97.2393 354.7018 0012252  39.7597 320.4537 15.26860059242758
DIAMOND RED             
1 42783U 17036U   21308.42018508  .00011133  00000-0  45403-3 0  9991
2 42783  97.2334 352.1035 0012790  53.1891 307.0518 15.24526974242635
PEGASUS                 
1 42784U 17036V   21308.55008861  .00023619  00000-0  93893-3 0  9995
2 42784  97.2338 353.0514 0012474  50.8299 309.4046 15.25223001242703
DIAMOND GREEN           
1 42785U 17036W   21308.22259070  .00010620  00000-0  43344-3 0  9994
2 42785  97.2338 351.9654 0012696  54.3997 305.8422 15.24512352242679
DIAMOND BLUE            
1 42786U 17036X   21308.54983760  .00022110  00000-0  89730-3 0  9996
2 42786  97.2337 352.2739 0012599  53.8058 306.4343 15.24540531242726
NUDTSAT                 
1 42787U 17036Y   21308.55884780  .00008755  00000-0  32667-3 0  9996
2 42787  97.2382 355.9689 0011660  43.0534 317.1621 15.27570170242711
SUCHAI                  
1 42788U 17036Z   21308.53592878  .00034942  00000-0  13461-2 0  9996
2 42788  97.2347 354.2229 0011861  48.1188 312.1061 15.26196452242842
SKCUBE                  
1 42789U 17036AA  21308.39530396  .00015032  00000-0  58859-3 0  9998
2 42789  97.2342 353.7265 0011826  49.1893 311.0369 15.25829963242722
VZLUSAT-1               
1 42790U 17036AB  21308.09732897  .00016000  00000-0  59510-3 0  9998
2 42790  97.2378 355.5064 0010982  45.7799 314.4340 15.27532060242793
ROBUSTA-1B              
1 42792U 17036AD  21308.53725066  .00033537  00000-0  12946-2 0  9994
2 42792  97.2344 354.3020 0011399  49.0404 311.1820 15.26143112242781
CICERO 6                
1 42793U 17036AE  21308.38316800  .00009358  00000-0  38054-3 0  9993
2 42793  97.2315 352.6577 0011079  54.0807 306.1457 15.24688306242750
D-SAT                   
1 42794U 17036AF  21308.49181920  .00003064  00000-0  26550-3 0  9995
2 42794  97.4570 320.9244 0126533 117.5310 243.8834 14.91766446237936
CORVUS BC2              
1 42846U 17042X   21308.50059224  .00002559  00000-0  25468-3 0  9998
2 42846  97.4496 173.1942 0010511  37.4442 322.7508 14.92418999234725
CORVUS BC1              
1 42847U 17042Y   21308.12693075  .00001050  00000-0  10732-3 0  9998
2 42847  97.4499 173.1051 0010178  37.9162 322.2772 14.92505366234670
MIRATA                  
1 43015U 17073C   21308.51998757  .00015987  00000-0  12040-2 0  9995
2 43015  97.6903 207.3956 0246787 198.4117 160.8046 14.81400961213944
MAKERSAT 0              
1 43016U 17073D   21308.15887471  .00005068  00000-0  38930-3 0  9992
2 43016  97.6931 206.9718 0251254 202.4172 156.5908 14.80442837213844
AEROCUBE 7B (OCSD B)    
1 43042U 17071F   21308.57876725  .00122160  00000-0  19603-2 0  9993
2 43042  51.6350  95.7612 0002668 110.5143 249.6133 15.52138198220568
AEROCUBE 7C (OCSD C)    
1 43043U 17071G   21308.56136253  .00117899  00000-0  19160-2 0  9999
2 43043  51.6341  96.3827 0002887 115.0476 245.0813 15.51803770220521
CHEFSAT                 
1 43044U 17071H   21308.83817511  .00437129  00000-0  26103-2 0  9999
2 43044  51.6321  43.1297 0004684 351.3048   8.6238 15.76063437221269
ASGARDIA 1              
1 43049U 17071N   21308.52425068  .00114373  00000-0  18891-2 0  9990
2 43049  51.6364  96.2932 0001372 142.7740 217.3344 15.51367765220527
ISARA                   
1 43050U 17071P   21308.55373495  .00430165  00000-0  37077-2 0  9998
2 43050  51.6299  56.7498 0002567 324.1170  35.9654 15.67369762221057
PROPCUBE 2 (FAUNA)      
1 43052U 17071R   21308.84244064  .00036018  00000-0  57822-3 0  9991
2 43052  51.6322  90.1393 0000486 231.4127 128.5916 15.52686282220627
CORVUS BC3              
1 43118U 18004H   21308.42353206  .00008813  00000-0  35728-3 0  9997
2 43118  97.3911  19.1992 0011530  79.4865 280.7672 15.24814388211908
MICROMAS-2A             
1 43131U 18004W   21308.46611688  .00028423  00000-0  10154-2 0  9991
2 43131  97.4013  23.5193 0009487  72.0124 288.2149 15.28758566212142
SPACEBEE-4              
1 43139U 18004AE  21308.51896549  .00082025  00000-0  26461-2 0  9992
2 43139  97.4091  26.5925 0008336  69.1937 291.0197 15.31796129212318
SPACEBEE-3              
1 43140U 18004AF  21308.50286759  .00070220  00000-0  21030-2 0  9990
2 43140  97.4131  28.5638 0007527  65.7456 294.4572 15.34229819212423
SPACEBEE-2              
1 43141U 18004AG  21308.44579695  .00073810  00000-0  21491-2 0  9997
2 43141  97.4152  29.2694 0007004  64.5391 295.6576 15.35106959212452
SPACEBEE-1              
1 43142U 18004AH  21308.53966896  .00147649  00000-0  41034-2 0  9998
2 43142  97.4165  30.1471 0006933  61.0555 299.1383 15.36250298212503
CICERO 7                
1 43143U 18004AJ  21308.16502119  .00025357  00000-0  91359-3 0  9999
2 43143  97.3986  23.1803 0008038  82.1564 278.0588 15.28515367212119
GOMX-4B                 
1 43196U 18015E   21308.48562084  .00006618  00000-0  26456-3 0  9996
2 43196  97.5048  81.6520 0019415 125.3067 234.9990 15.25280203208851
GOMX-4A                 
1 43197U 18015F   21308.62944326  .00004920  00000-0  19306-3 0  9996
2 43197  97.5036  82.1804 0019749 126.5085 245.7233 15.26031634208913
AEROCUBE 12A            
1 43556U 18046C   21308.10422147  .00021104  00000-0  66115-3 0  9997
2 43556  51.6390 195.9385 0006523 306.4736  53.5644 15.33016978184692
AEROCUBE 12B            
1 43557U 18046D   21308.39007003  .00017166  00000-0  55325-3 0  9993
2 43557  51.6389 197.0509 0006699 307.0170  53.0198 15.32251616184659
SURFSAT                 
1 43614U 18070B   21308.43650189  .00036637  00000-0  79526-3 0  9991
2 43614  93.0291   4.4004 0013789 167.8400 192.3192 15.44156194176258
CP7 (DAVE)              
1 43615U 18070C   21308.41846805  .00034228  00000-0  75266-3 0  9993
2 43615  93.0295   4.3285 0014068 168.5199 191.6382 15.43776844176237
ELFIN-B                 
1 43616U 18070D   21308.13132780  .00050664  00000-0  96396-3 0  9992
2 43616  93.0244   4.6074 0013590 164.6763 195.4910 15.47957359176352
ELFIN-A                 
1 43617U 18070E   21308.42845852  .00074406  00000-0  13764-2 0  9993
2 43617  93.0298   5.7228 0013132 160.3179 199.8590 15.48687325176425
CUBEBEL-1 (BSUSAT-1)    
1 43666U 18083E   21308.51187630  .00004862  00000-0  22830-3 0  9998
2 43666  97.4463 335.0901 0015644  45.3292  96.3685 15.19990007167288
CICERO 10               
1 43690U 18088A   21308.46814994  .00010540  00000-0  46144-3 0  9998
2 43690  85.0335 105.2483 0012196 253.7385 106.2515 15.21831928165511
